[{"OBJECT_NAME":"YAOGAN-30 02A","OBJECT_ID":"2017-058A","EPOCH":"2026-03-09T22:50:50.758368","MEAN_MOTION":15.02502907,"ECCENTRICITY":0.0002444,"INCLINATION":34.9965,"RA_OF_ASC_NODE":274.2208,"ARG_OF_PERICENTER":338.504,"MEAN_ANOMALY":21.5565,"EPHEMERIS_TYPE":0,"CLASSIFICATION_TYPE":"U","NORAD_CAT_ID":42945,"ELEMENT_SET_NO":999,"REV_AT_EPOCH":46095,"BSTAR":0.00033405903,"MEAN_MOTION_DOT":4.5e-5,"MEAN_MOTION_DDOT":0},{"OBJECT_NAME":"STARLINK-6332","OBJECT_ID":"2023-099M","EPOCH":"2026-03-09T11:34:18.681024","MEAN_MOTION":15.02535546,"ECCENTRICITY":8.439e-5,"INCLINATION":42.9996,"RA_OF_ASC_NODE":250.2475,"ARG_OF_PERICENTER":288.9657,"MEAN_ANOMALY":71.1094,"EPHEMERIS_TYPE":0,"CLASSIFICATION_TYPE":"U","NORAD_CAT_ID":57339,"ELEMENT_SET_NO":999,"REV_AT_EPOCH":14608,"BSTAR":2.9529871e-5,"MEAN_MOTION_DOT":1.95e-6,"MEAN_MOTION_DDOT":0}]
